[{"OBJECT_NAME":"HELIOS 1B","OBJECT_ID":"1999-064A","EPOCH":"2026-03-07T23:09:46.209888","MEAN_MOTION":14.87691939,"ECCENTRICITY":0.00024707,"INCLINATION":98.1696,"RA_OF_ASC_NODE":329.158,"ARG_OF_PERICENTER":77.2904,"MEAN_ANOMALY":282.8588,"EPHEMERIS_TYPE":0,"CLASSIFICATION_TYPE":"U","NORAD_CAT_ID":25977,"ELEMENT_SET_NO":999,"REV_AT_EPOCH":68500,"BSTAR":0.00029296911,"MEAN_MOTION_DOT":2.61e-5,"MEAN_MOTION_DDOT":0},{"OBJECT_NAME":"TERRA","OBJECT_ID":"1999-068A","EPOCH":"2026-03-08T03:11:50.201088","MEAN_MOTION":14.61013036,"ECCENTRICITY":0.0002605,"INCLINATION":97.9597,"RA_OF_ASC_NODE":120.6274,"ARG_OF_PERICENTER":155.0537,"MEAN_ANOMALY":230.1693,"EPHEMERIS_TYPE":0,"CLASSIFICATION_TYPE":"U","NORAD_CAT_ID":25994,"ELEMENT_SET_NO":999,"REV_AT_EPOCH":39485,"BSTAR":0.00013563,"MEAN_MOTION_DOT":6.21e-6,"MEAN_MOTION_DDOT":0},{"OBJECT_NAME":"SL-16 R/B","OBJECT_ID":"2000-006B","EPOCH":"2026-03-08T02:31:02.133984","MEAN_MOTION":14.15825827,"ECCENTRICITY":0.0016887,"INCLINATION":71.0011,"RA_OF_ASC_NODE":101.1702,"ARG_OF_PERICENTER":192.5068,"MEAN_ANOMALY":167.5638,"EPHEMERIS_TYPE":0,"CLASSIFICATION_TYPE":"U","NORAD_CAT_ID":26070,"ELEMENT_SET_NO":999,"REV_AT_EPOCH":34833,"BSTAR":1.5075e-5,"MEAN_MOTION_DOT":-1.8e-7,"MEAN_MOTION_DDOT":0},{"OBJECT_NAME":"TITAN 4B R/B","OBJECT_ID":"2000-047B","EPOCH":"2026-03-08T02:33:08.957088","MEAN_MOTION":15.09544173,"ECCENTRICITY":0.0038471,"INCLINATION":67.9898,"RA_OF_ASC_NODE":44.9623,"ARG_OF_PERICENTER":37.2919,"MEAN_ANOMALY":323.089,"EPHEMERIS_TYPE":0,"CLASSIFICATION_TYPE":"U","NORAD_CAT_ID":26474,"ELEMENT_SET_NO":999,"REV_AT_EPOCH":39267,"BSTAR":0.00041764,"MEAN_MOTION_DOT":6.705e-5,"MEAN_MOTION_DDOT":0},{"OBJECT_NAME":"ENVISAT","OBJECT_ID":"2002-009A","EPOCH":"2026-03-07T20:45:57.767616","MEAN_MOTION":14.390362,"ECCENTRICITY":0.00013445,"INCLINATION":98.3727,"RA_OF_ASC_NODE":20.506,"ARG_OF_PERICENTER":83.4028,"MEAN_ANOMALY":293.7966,"EPHEMERIS_TYPE":0,"CLASSIFICATION_TYPE":"U","NORAD_CAT_ID":27386,"ELEMENT_SET_NO":999,"REV_AT_EPOCH":25891,"BSTAR":7.8922014e-5,"MEAN_MOTION_DOT":2.01e-6,"MEAN_MOTION_DDOT":0},{"OBJECT_NAME":"IDEFIX & ARIANE 42P R/B","OBJECT_ID":"2002-021B","EPOCH":"2026-03-07T17:56:55.438368","MEAN_MOTION":14.31024715,"ECCENTRICITY":0.00114587,"INCLINATION":98.5867,"RA_OF_ASC_NODE":5.3774,"ARG_OF_PERICENTER":187.9792,"MEAN_ANOMALY":172.121,"EPHEMERIS_TYPE":0,"CLASSIFICATION_TYPE":"U","NORAD_CAT_ID":27422,"ELEMENT_SET_NO":999,"REV_AT_EPOCH":24374,"BSTAR":0.00017793858,"MEAN_MOTION_DOT":4.25e-6,"MEAN_MOTION_DDOT":0},{"OBJECT_NAME":"AQUA","OBJECT_ID":"2002-022A","EPOCH":"2026-03-08T04:16:33.254688","MEAN_MOTION":14.61973579,"ECCENTRICITY":5.74e-5,"INCLINATION":98.4174,"RA_OF_ASC_NODE":34.5155,"ARG_OF_PERICENTER":73.7019,"MEAN_ANOMALY":343.7683,"EPHEMERIS_TYPE":0,"CLASSIFICATION_TYPE":"U","NORAD_CAT_ID":27424,"ELEMENT_SET_NO":999,"REV_AT_EPOCH":26851,"BSTAR":0.00032707,"MEAN_MOTION_DOT":1.59e-5,"MEAN_MOTION_DDOT":0},{"OBJECT_NAME":"CZ-4B R/B","OBJECT_ID":"2002-024C","EPOCH":"2026-03-08T03:40:04.697760","MEAN_MOTION":14.14547416,"ECCENTRICITY":0.0050552,"INCLINATION":98.8841,"RA_OF_ASC_NODE":120.5672,"ARG_OF_PERICENTER":28.5565,"MEAN_ANOMALY":341.5875,"EPHEMERIS_TYPE":0,"CLASSIFICATION_TYPE":"U","NORAD_CAT_ID":27432,"ELEMENT_SET_NO":999,"REV_AT_EPOCH":22902,"BSTAR":4.9753e-5,"MEAN_MOTION_DOT":5.2e-7,"MEAN_MOTION_DDOT":0},{"OBJECT_NAME":"MIDORI II (ADEOS-II)","OBJECT_ID":"2002-056A","EPOCH":"2026-03-07T18:33:56.295936","MEAN_MOTION":14.29283516,"ECCENTRICITY":0.00016681,"INCLINATION":98.7767,"RA_OF_ASC_NODE":25.2379,"ARG_OF_PERICENTER":45.66,"MEAN_ANOMALY":314.4718,"EPHEMERIS_TYPE":0,"CLASSIFICATION_TYPE":"U","NORAD_CAT_ID":27597,"ELEMENT_SET_NO":999,"REV_AT_EPOCH":21002,"BSTAR":0.00019870894,"MEAN_MOTION_DOT":4.6e-6,"MEAN_MOTION_DDOT":0},{"OBJECT_NAME":"H-2A R/B","OBJECT_ID":"2002-056E","EPOCH":"2026-03-07T21:12:55.771776","MEAN_MOTION":14.33759464,"ECCENTRICITY":0.00703965,"INCLINATION":98.32,"RA_OF_ASC_NODE":27.3183,"ARG_OF_PERICENTER":166.0224,"MEAN_ANOMALY":209.2343,"EPHEMERIS_TYPE":0,"CLASSIFICATION_TYPE":"U","NORAD_CAT_ID":27601,"ELEMENT_SET_NO":999,"REV_AT_EPOCH":21385,"BSTAR":0.00014889864,"MEAN_MOTION_DOT":3.84e-6,"MEAN_MOTION_DDOT":0},{"OBJECT_NAME":"CZ-4B R/B","OBJECT_ID":"2003-049C","EPOCH":"2026-03-08T00:11:45.232224","MEAN_MOTION":14.5501864,"ECCENTRICITY":0.0047191,"INCLINATION":98.6878,"RA_OF_ASC_NODE":61.8469,"ARG_OF_PERICENTER":236.1495,"MEAN_ANOMALY":123.5205,"EPHEMERIS_TYPE":0,"CLASSIFICATION_TYPE":"U","NORAD_CAT_ID":28059,"ELEMENT_SET_NO":999,"REV_AT_EPOCH":18635,"BSTAR":0.00014191,"MEAN_MOTION_DOT":5.68e-6,"MEAN_MOTION_DDOT":0},{"OBJECT_NAME":"CZ-2C R/B","OBJECT_ID":"2004-012C","EPOCH":"2026-03-08T03:18:39.700800","MEAN_MOTION":15.64285708,"ECCENTRICITY":0.0013011,"INCLINATION":97.7227,"RA_OF_ASC_NODE":132.2834,"ARG_OF_PERICENTER":315.6412,"MEAN_ANOMALY":44.3802,"EPHEMERIS_TYPE":0,"CLASSIFICATION_TYPE":"U","NORAD_CAT_ID":28222,"ELEMENT_SET_NO":999,"REV_AT_EPOCH":20403,"BSTAR":0.00075856,"MEAN_MOTION_DOT":0.00073007,"MEAN_MOTION_DDOT":0},{"OBJECT_NAME":"SL-16 R/B","OBJECT_ID":"2004-021B","EPOCH":"2026-03-07T18:14:16.220544","MEAN_MOTION":14.14598625,"ECCENTRICITY":0.00039331,"INCLINATION":70.9994,"RA_OF_ASC_NODE":236.5424,"ARG_OF_PERICENTER":12.762,"MEAN_ANOMALY":347.3601,"EPHEMERIS_TYPE":0,"CLASSIFICATION_TYPE":"U","NORAD_CAT_ID":28353,"ELEMENT_SET_NO":999,"REV_AT_EPOCH":12256,"BSTAR":-9.1753654e-5,"MEAN_MOTION_DOT":-2.24e-6,"MEAN_MOTION_DDOT":0},{"OBJECT_NAME":"CZ-4B R/B","OBJECT_ID":"2004-035C","EPOCH":"2026-03-08T01:50:39.878880","MEAN_MOTION":15.29030592,"ECCENTRICITY":0.0031169,"INCLINATION":97.3499,"RA_OF_ASC_NODE":101.3384,"ARG_OF_PERICENTER":337.5188,"MEAN_ANOMALY":22.4684,"EPHEMERIS_TYPE":0,"CLASSIFICATION_TYPE":"U","NORAD_CAT_ID":28415,"ELEMENT_SET_NO":999,"REV_AT_EPOCH":17966,"BSTAR":0.00042884,"MEAN_MOTION_DOT":0.00012195,"MEAN_MOTION_DDOT":0},{"OBJECT_NAME":"CZ-2C R/B","OBJECT_ID":"2004-046B","EPOCH":"2026-03-08T03:40:46.308000","MEAN_MOTION":14.26991479,"ECCENTRICITY":0.0139804,"INCLINATION":98.1985,"RA_OF_ASC_NODE":342.2329,"ARG_OF_PERICENTER":158.9654,"MEAN_ANOMALY":201.7357,"EPHEMERIS_TYPE":0,"CLASSIFICATION_TYPE":"U","NORAD_CAT_ID":28480,"ELEMENT_SET_NO":999,"REV_AT_EPOCH":10828,"BSTAR":7.6022e-5,"MEAN_MOTION_DOT":1.65e-6,"MEAN_MOTION_DDOT":0},{"OBJECT_NAME":"ARIANE 5 R/B","OBJECT_ID":"2004-049H","EPOCH":"2026-03-08T00:22:47.419968","MEAN_MOTION":14.8526281,"ECCENTRICITY":0.008406,"INCLINATION":98.2624,"RA_OF_ASC_NODE":235.4102,"ARG_OF_PERICENTER":357.3733,"MEAN_ANOMALY":2.7027,"EPHEMERIS_TYPE":0,"CLASSIFICATION_TYPE":"U","NORAD_CAT_ID":28499,"ELEMENT_SET_NO":999,"REV_AT_EPOCH":14554,"BSTAR":0.00012999,"MEAN_MOTION_DOT":1.123e-5,"MEAN_MOTION_DDOT":0},{"OBJECT_NAME":"CZ-2D R/B","OBJECT_ID":"2005-024B","EPOCH":"2026-03-08T01:00:01.679904","MEAN_MOTION":15.59971317,"ECCENTRICITY":0.0006144,"INCLINATION":97.3596,"RA_OF_ASC_NODE":82.1272,"ARG_OF_PERICENTER":50.9677,"MEAN_ANOMALY":309.2126,"EPHEMERIS_TYPE":0,"CLASSIFICATION_TYPE":"U","NORAD_CAT_ID":28738,"ELEMENT_SET_NO":999,"REV_AT_EPOCH":13952,"BSTAR":0.00071166,"MEAN_MOTION_DOT":0.00057667,"MEAN_MOTION_DDOT":0}]
