HELIOS 1B               
1 25977U 99064A   26066.96511817  .00002610  00000+0  29297-3 0  9996
2 25977  98.1696 329.1580 0002470  77.2904 282.8588 14.87691939685008
TERRA                   
1 25994U 99068A   26067.13321992  .00000621  00000+0  13563-3 0  9991
2 25994  97.9597 120.6274 0002605 155.0537 230.1693 14.61013036394856
SL-16 R/B               
1 26070U 00006B   26067.10488581 -.00000018  00000+0  15075-4 0  9998
2 26070  71.0011 101.1702 0016887 192.5068 167.5638 14.15825827348330
TITAN 4B R/B            
1 26474U 00047B   26067.10635367  .00006705  00000+0  41764-3 0  9998
2 26474  67.9898  44.9623 0038471  37.2919 323.0890 15.09544173392675
ENVISAT                 
1 27386U 02009A   26066.86525194  .00000201  00000+0  78922-4 0  9991
2 27386  98.3727  20.5060 0001344  83.4028 293.7966 14.39036200258919
IDEFIX & ARIANE 42P R/B 
1 27422U 02021B   26066.74786387  .00000425  00000+0  17794-3 0  9993
2 27422  98.5867   5.3774 0011458 187.9792 172.1210 14.31024715243742
AQUA                    
1 27424U 02022A   26067.17816267  .00001590  00000+0  32707-3 0  9990
2 27424  98.4174  34.5155 0000574  73.7019 343.7683 14.61973579268518
CZ-4B R/B               
1 27432U 02024C   26067.15283215  .00000052  00000+0  49753-4 0  9992
2 27432  98.8841 120.5672 0050552  28.5565 341.5875 14.14547416229024
MIDORI II (ADEOS-II)    
1 27597U 02056A   26066.77356824  .00000460  00000+0  19871-3 0  9993
2 27597  98.7767  25.2379 0001668  45.6600 314.4718 14.29283516210020
H-2A R/B                
1 27601U 02056E   26066.88397884  .00000384  00000+0  14890-3 0  9993
2 27601  98.3200  27.3183 0070396 166.0224 209.2343 14.33759464213858
CZ-4B R/B               
1 28059U 03049C   26067.00816241  .00000568  00000+0  14191-3 0  9990
2 28059  98.6878  61.8469 0047191 236.1495 123.5205 14.55018640186353
CZ-2C R/B               
1 28222U 04012C   26067.13795950  .00073007  00000+0  75856-3 0  9993
2 28222  97.7227 132.2834 0013011 315.6412  44.3802 15.64285708204039
SL-16 R/B               
1 28353U 04021B   26066.75990996 -.00000224  00000+0 -91754-4 0  9991
2 28353  70.9994 236.5424 0003933  12.7620 347.3601 14.14598625122568
CZ-4B R/B               
1 28415U 04035C   26067.07685045  .00012195  00000+0  42884-3 0  9994
2 28415  97.3499 101.3384 0031169 337.5188  22.4684 15.29030592179669
CZ-2C R/B               
1 28480U 04046B   26067.15331375  .00000165  00000+0  76022-4 0  9997
2 28480  98.1985 342.2329 0139804 158.9654 201.7357 14.26991479108288
ARIANE 5 R/B            
1 28499U 04049H   26067.01582662  .00001123  00000+0  12999-3 0  9999
2 28499  98.2624 235.4102 0084060 357.3733   2.7027 14.85262810145545
CZ-2D R/B               
1 28738U 05024B   26067.04168611  .00057667  00000+0  71166-3 0  9991
2 28738  97.3596  82.1272 0006144  50.9677 309.2126 15.59971317139521
